TANAGER-1               
1 60507U 24149AR  26196.21387050  .00000191  00000+0  60546-5 0  9994
2 60507  97.2324 290.3469 0001553 136.7209 223.4162 15.43902804107365
